EYESAT A (AO-27)        
1 22825U 93061C   26196.17910514  .00000039  00000+0  31759-4 0  9990
2 22825  98.6868 263.5806 0008763  25.9041 334.2579 14.30949052711000
ITAMSAT (IO-26)         
1 22826U 93061D   26196.15016185  .00000042  00000+0  32789-4 0  9998
2 22826  98.6816 263.4720 0008968   9.5131 350.6220 14.31376655711316
RADIO ROSTO (RS15)      
1 23439U 94085A   26196.49648903 -.00000040  00000+0  70627-4 0  9994
2 23439  64.8150 257.4334 0156926 358.6554   1.3929 11.27583515299091
JAS-2 (FO-29)           
1 24278U 96046B   26196.55347070  .00000004  00000+0  39317-4 0  9993
2 24278  98.5219  41.5371 0350345  23.0121 338.6291 13.53275706477008
FORTE                   
1 24920U 97047A   26196.53473305  .00000070  00000+0  51571-4 0  9997
2 24920  69.9546 309.9904 0024343 243.0244 116.8393 14.27955516502730
TECHSAT 1B (GO-32)      
1 25397U 98043D   26196.51275166  .00000004  00000+0  21829-4 0  9996
2 25397  99.0085 189.9879 0002190 113.9012 246.2396 14.24433411455361
ISS (ZARYA)             
1 25544U 98067A   26196.37932006  .00003801  00000+0  77082-4 0  9993
2 25544  51.6310 160.5727 0006717 298.6245  61.4067 15.49014944576129
IMAGE                   
1 26113U 00017A   26191.39817865 -.00000042  00000+0  00000+0 0  9992
2 26113  94.2468 315.6762 7416054 285.1805   9.7435  1.68666826161896
CLUSTER II-FM7 (SAMBA)  
1 26410U 00041A   26192.68021872  .00012833  00000+0  00000+0 0  9997
2 26410 149.8437  55.3938 9082311 272.8334 359.6328  0.44896530 20420
CLUSTER II-FM8 (TANGO)  
1 26464U 00045B   26195.45080911  .00019808  00000+0  00000+0 0  9996
2 26464 150.0346  57.1658 9090382 274.4944   1.9905  0.44416740 20433
ODIN                    
1 26702U 01007A   26196.11738259  .00268050  28117-4  92766-3 0  9992
2 26702  97.3728 239.0985 0005003 152.5421 207.6117 15.89461170393819
OMNI-M1                 
1 26857U 01026A   26196.51065422  .00000004  00000+0  00000+0 0  9998
2 26857  44.8240 238.7352 0013528  57.8922 302.2996  3.92402085206680
PCSAT (NO-44)           
1 26931U 01043C   26196.37675878  .00000009  00000+0  34418-4 0  9996
2 26931  67.0495 171.3598 0005919 266.6362  93.4063 14.31965034294481
PROBA-1                 
1 26958U 01049B   26196.61100230  .00001196  00000+0  80448-4 0  9995
2 26958  97.9599 206.1376 0055772  28.4548 331.9704 15.07617172347909
SAUDISAT 1C (SO-50)     
1 27607U 02058C   26196.00432816  .00000376  00000+0  62404-4 0  9990
2 27607  64.5518  42.9159 0074536 257.3021 101.9746 14.83098196268584
CORIOLIS                
1 27640U 03001A   26196.52406586  .00000037  00000+0  38040-4 0  9991
2 27640  98.7135 202.9767 0014935 128.3280 231.9242 14.19951908218240
CUTE-1 (CO-55)          
1 27844U 03031E   26196.48745324  .00000133  00000+0  76487-4 0  9995
2 27844  98.6744 204.6909 0010836 101.9513 258.2882 14.24351670195703
CUBESAT XI-IV (CO-57)   
1 27848U 03031J   26196.49013580  .00000112  00000+0  68039-4 0  9993
2 27848  98.6774 204.3834 0010557 118.6468 241.5773 14.23634657195407
MOZHAETS 4 (RS22)       
1 27939U 03042A   26196.60263115  .00000129  00000+0  28142-4 0  9999
2 27939  98.3468  21.7656 0011257 171.9727 278.6707 14.73513794219730
